NORAD_CAT_ID,OBJECT_NAME,OBJECT_TYPE,EPOCH,MEAN_MOTION,ECCENTRICITY,INCLINATION,RA_OF_ASC_NODE,ARG_OF_PERICENTER,MEAN_ANOMALY,BSTAR,MEAN_MOTION_DOT,MEAN_MOTION_DDOT,TLE_LINE0,TLE_LINE1,TLE_LINE2,SEMIMAJOR_AXIS,PERIOD,APOGEE,PERIGEE,DECAYED
52102.0,STARLINK-3709,PAYLOAD,2022-08-11 20:00:01,15.08820642,0.000236,53.2159,181.3212,54.953,86.4865,0.0022321,0.00035397,0.0,0 STARLINK-3709,1 52102U 22029Q   22223.83334491  .00035397  00000-0  22321-2 0  9990,2 52102  53.2159 181.3212 0002360  54.9530  86.4865 15.08820642 23640,6917.94,95.439,541.437,538.172,0.0
52102.0,STARLINK-3709,PAYLOAD,2022-08-12 14:00:01,15.08865124,0.0002444,53.2165,177.9551,52.4486,205.0831,-0.0011403,-0.00018404,0.0,0 STARLINK-3709,1 52102U 22029Q   22224.58334491 -.00018404  00000-0 -11403-2 0  9994,2 52102  53.2165 177.9551 0002444  52.4486 205.0831 15.08865124  1305,6917.804,95.436,541.359,537.9780000000002,0.0
52102.0,STARLINK-3709,PAYLOAD,2022-08-12 22:00:01,15.08872879,0.0002406,53.2167,176.4584,55.5785,213.6243,-0.0029546999999999,-0.0004705,0.0,0 STARLINK-3709,1 52102U 22029Q   22224.91668981 -.00047050  00000-0 -29547-2 0  9992,2 52102  53.2167 176.4584 0002406  55.5785 213.6243 15.08872879  1308,6917.78,95.435,541.309,537.98,0.0
52102.0,STARLINK-3709,PAYLOAD,2022-08-13 14:00:01,15.08827436,0.0002359,53.2172,173.4661,50.9905,241.3494,-0.0012798,-0.00020592,0.0,0 STARLINK-3709,1 52102U 22029Q   22225.58334491 -.00020592  00000-0 -12798-2 0  9994,2 52102  53.2172 173.4661 0002359  50.9905 241.3494 15.08827436  1302,6917.919,95.438,541.4159999999998,538.1519999999998,0.0
52102.0,STARLINK-3709,PAYLOAD,2022-08-13 22:00:00,15.08833135,0.0002366,53.2174,171.9696,54.7393,249.1667,-3.1997e-05,-7.97e-06,0.0,0 STARLINK-3709,1 52102U 22029Q   22225.91667824 -.00000797  00000-0 -31997-4 0  9999,2 52102  53.2174 171.9696 0002366  54.7393 249.1667 15.08833135  1307,6917.901,95.438,541.403,538.13,0.0
52102.0,STARLINK-3709,PAYLOAD,2022-08-14 14:00:01,15.0884448,0.0002413,53.2177,168.9772,53.3559,273.7239,-0.00012344,-2.253e-05,0.0,0 STARLINK-3709,1 52102U 22029Q   22226.58334491 -.00002253  00000-0 -12344-3 0  9997,2 52102  53.2177 168.9772 0002413  53.3559 273.7239 15.08844480  1306,6917.8669999999975,95.437,541.401,538.062,0.0
52102.0,STARLINK-3709,PAYLOAD,2022-08-14 22:00:00,15.08869489,0.0002381999999999,53.2179,167.4809,55.6569,283.0111,-0.0019102999999999,-0.00030588,0.0,0 STARLINK-3709,1 52102U 22029Q   22226.91667824 -.00030588  00000-0 -19103-2 0  9994,2 52102  53.2179 167.4809 0002382  55.6569 283.0111 15.08869489  1303,6917.79,95.436,541.303,538.007,0.0
52102.0,STARLINK-3709,PAYLOAD,2022-08-15 06:00:00,15.08815713,0.0002504,53.2178,165.9861,50.86600000000001,299.4253,0.0021706,0.00034404,0.0,0 STARLINK-3709,1 52102U 22029Q   22227.25001157  .00034404  00000-0  21706-2 0  9994,2 52102  53.2178 165.9861 0002504  50.8660 299.4253 15.08815713 24155,6917.955,95.439,541.552,538.087,0.0
52102.0,STARLINK-3709,PAYLOAD,2022-08-15 14:00:01,15.08832177,0.0002342,53.2177,164.4883,54.1128,307.7603,0.00025052,3.7e-05,0.0,0 STARLINK-3709,1 52102U 22029Q   22227.58334491  .00003700  00000-0  25052-3 0  9994,2 52102  53.2177 164.4883 0002342  54.1128 307.7603 15.08832177  1305,6917.904,95.438,541.389,538.149,0.0
52102.0,STARLINK-3709,PAYLOAD,2022-08-15 22:00:00,15.0886018,0.0002334999999999,53.2178,162.9922,56.2378,317.2207,-0.001008,-0.00016304,0.0,0 STARLINK-3709,1 52102U 22029Q   22227.91667824 -.00016304  00000-0 -10080-2 0  9990,2 52102  53.2178 162.9922 0002335  56.2378 317.2207 15.08860180  1306,6917.819,95.436,541.299,538.068,0.0
52102.0,STARLINK-3709,PAYLOAD,2022-08-16 14:00:01,15.08823966,0.0002241,53.2174,159.9993,55.4369,341.233,0.00093079,0.0001455,0.0,0 STARLINK-3709,1 52102U 22029Q   22228.58334491  .00014550  00000-0  93079-3 0  9994,2 52102  53.2174 159.9993 0002241  55.4369 341.2330 15.08823966  1308,6917.929,95.439,541.345,538.244,0.0
52102.0,STARLINK-3709,PAYLOAD,2022-08-16 22:00:00,15.08795771,0.0002411999999999,53.2175,158.509,52.2538,355.9811,0.0040155,0.00064124,0.0,0 STARLINK-3709,1 52102U 22029Q   22228.91667824  .00064124  00000-0  40155-2 0  9998,2 52102  53.2175 158.5090 0002412  52.2538 355.9811 15.08795771  1303,6918.016,95.44,541.549,538.212,0.0
52102.0,STARLINK-3709,PAYLOAD,2022-08-17 06:00:02,15.08792934,0.0002294,53.2169,157.0083,51.1434,8.7721,0.003028,0.00048171,0.0,0 STARLINK-3709,1 52102U 22029Q   22229.25002315  .00048171  00000-0  30280-2 0  9996,2 52102  53.2169 157.0083 0002294  51.1434   8.7721 15.08792934 24466,6918.024,95.441,541.476,538.302,0.0
52102.0,STARLINK-3709,PAYLOAD,2022-08-17 16:00:00,15.08802663,0.0002130999999999,53.2164,155.136,56.9441,107.369,0.0029711,0.00047267,0.0,0 STARLINK-3709,1 52102U 22029Q   22229.66667824  .00047267  00000-0  29711-2 0  9995,2 52102  53.2164 155.1360 0002131  56.9441 107.3690 15.08802663 24528,6917.995,95.44,541.3340000000002,538.385,0.0
52102.0,STARLINK-3709,PAYLOAD,2022-08-18 08:00:01,15.0884502,0.0002301,53.216,152.1449,53.7161,133.7607,0.00079914,0.00012455,0.0,0 STARLINK-3709,1 52102U 22029Q   22230.33334491  .00012455  00000-0  79914-3 0  9994,2 52102  53.2160 152.1449 0002301  53.7161 133.7607 15.08845020 24628,6917.865,95.437,541.322,538.138,0.0
52102.0,STARLINK-3709,PAYLOAD,2022-08-18 14:00:01,15.08836392,0.0002144,53.2161,151.0213,58.5819,47.6052,0.0022171,0.00035171,0.0,0 STARLINK-3709,1 52102U 22029Q   22230.58334491  .00035171  00000-0  22171-2 0  9993,2 52102  53.2161 151.0213 0002144  58.5819  47.6052 15.08836392  1303,6917.891,95.438,541.24,538.273,0.0
52102.0,STARLINK-3709,PAYLOAD,2022-08-18 22:00:00,15.08890509,0.0002193,53.2166,149.5275,60.20399999999999,57.5822,-0.0046612,-0.00073816,0.0,0 STARLINK-3709,1 52102U 22029Q   22230.91667824 -.00073816  00000-0 -46612-2 0  9995,2 52102  53.2166 149.5275 0002193  60.2040  57.5822 15.08890509  1303,6917.726,95.434,541.1080000000002,538.0740000000002,0.0
52102.0,STARLINK-3709,PAYLOAD,2022-08-19 04:00:01,15.08837992,0.0002231999999999,53.2169,148.4085,59.0821,337.4967,-0.0051775,-0.00081753,0.0,0 STARLINK-3709,1 52102U 22029Q   22231.16668981 -.00081753  00000-0 -51775-2 0  9993,2 52102  53.2169 148.4085 0002232  59.0821 337.4967 15.08837992 24751,6917.887,95.438,541.2959999999998,538.207,0.0
52102.0,STARLINK-3709,PAYLOAD,2022-08-19 14:00:01,15.08794842,0.000193,53.216,146.532,54.195,86.8371,0.0010267,0.0001607,0.0,0 STARLINK-3709,1 52102U 22029Q   22231.58334491  .00016070  00000-0  10267-2 0  9994,2 52102  53.2160 146.5320 0001930  54.1950  86.8371 15.08794842 24813,6918.018,95.44,541.219,538.548,0.0
52102.0,STARLINK-3709,PAYLOAD,2022-08-19 22:00:00,15.08819713,0.0002043,53.2161,145.0364,54.4665,98.1062,-0.0012736,-0.0002049,0.0,0 STARLINK-3709,1 52102U 22029Q   22231.91667824 -.00020490  00000-0 -12736-2 0  9996,2 52102  53.2161 145.0364 0002043  54.4665  98.1062 15.08819713  1305,6917.941999999999,95.439,541.221,538.394,0.0
52102.0,STARLINK-3709,PAYLOAD,2022-08-20 14:00:01,15.08803117,0.0002014,53.2163,142.0429,54.6995,121.0061,0.0027896,0.00044344,0.0,0 STARLINK-3709,1 52102U 22029Q   22232.58334491  .00044344  00000-0  27896-2 0  9996,2 52102  53.2163 142.0429 0002014  54.6995 121.0061 15.08803117  1308,6917.993,95.44,541.251,538.465,0.0
52102.0,STARLINK-3709,PAYLOAD,2022-08-20 22:00:00,15.08858909,0.0002186,53.2166,140.5475,55.822,131.4722,-0.0016483,-0.0002644,0.0,0 STARLINK-3709,1 52102U 22029Q   22232.91667824 -.00026440  00000-0 -16483-2 0  9991,2 52102  53.2166 140.5475 0002186  55.8220 131.4722 15.08858909 25011,6917.823,95.436,541.2,538.175,0.0
52102.0,STARLINK-3709,PAYLOAD,2022-08-21 14:00:01,15.08807462,0.0002065999999999,53.2169,137.5538,55.5793,154.914,0.0028425,0.00045201,0.0,0 STARLINK-3709,1 52102U 22029Q   22233.58334491  .00045201  00000-0  28425-2 0  9999,2 52102  53.2169 137.5538 0002066  55.5793 154.9140 15.08807462  1307,6917.98,95.44,541.274,538.4159999999998,0.0
52102.0,STARLINK-3709,PAYLOAD,2022-08-21 22:00:00,15.08847586,0.0002198,53.2172,136.0586,55.3803,166.6858,-0.0011663,-0.00018806,0.0,0 STARLINK-3709,1 52102U 22029Q   22233.91667824 -.00018806  00000-0 -11663-2 0  9994,2 52102  53.2172 136.0586 0002198  55.3803 166.6858 15.08847586 25161,6917.857,95.437,541.243,538.202,0.0
52102.0,STARLINK-3709,PAYLOAD,2022-08-22 12:00:00,15.08838077,0.0002134999999999,53.2176,133.4393,56.7188,95.6431,0.0010962,0.000172,0.0,0 STARLINK-3709,1 52102U 22029Q   22234.50001157  .00017200  00000-0  10962-2 0  9997,2 52102  53.2176 133.4393 0002135  56.7188  95.6431 15.08838077  1307,6917.886,95.438,541.2280000000002,538.274,0.0
52102.0,STARLINK-3709,PAYLOAD,2022-08-22 22:00:00,15.08875162,0.0002205,53.2177,131.5698,56.3582,200.5014,-0.0034539,-0.00054893,0.0,0 STARLINK-3709,1 52102U 22029Q   22234.91667824 -.00054893  00000-0 -34539-2 0  9998,2 52102  53.2177 131.5698 0002205  56.3582 200.5014 15.08875162  1307,6917.773,95.435,541.163,538.113,0.0
52102.0,STARLINK-3709,PAYLOAD,2022-08-23 04:00:00,15.08817182,0.0002245,53.2176,130.4483,52.2656,123.3144,0.002041,0.00032324,0.0,0 STARLINK-3709,1 52102U 22029Q   22235.16667824  .00032324  00000-0  20410-2 0  9992,2 52102  53.2176 130.4483 0002245  52.2656 123.3144 15.08817182 25352,6917.95,95.439,541.368,538.262,0.0
52102.0,STARLINK-3709,PAYLOAD,2022-08-23 14:00:01,15.08811818,0.0002056,53.2177,128.576,58.8758,221.1915,0.0030458,0.00048483,0.0,0 STARLINK-3709,1 52102U 22029Q   22235.58334491  .00048483  00000-0  30458-2 0  9995,2 52102  53.2177 128.5760 0002056  58.8758 221.1915 15.08811818  1306,6917.967,95.439,541.254,538.409,0.0
52102.0,STARLINK-3709,PAYLOAD,2022-08-23 22:00:01,15.08848975,0.0002173,53.2178,127.0811,56.938,234.7716,-0.0012921,-0.00020799,0.0,0 STARLINK-3709,1 52102U 22029Q   22235.91668981 -.00020799  00000-0 -12921-2 0  9993,2 52102  53.2178 127.0811 0002173  56.9380 234.7716 15.08848975 25464,6917.853,95.437,541.221,538.215,0.0
